[
  {
    "name": "KKS-1 (KISEKI)",
    "line1": "1 33499U 09002H   26171.42750161  .00000993  00000+0  12861-3 0  9993",
    "line2": "2 33499  98.1188  93.9212 0006425 283.2129  76.8367 14.83130850936676"
  },
  {
    "name": "SWISSCUBE",
    "line1": "1 35932U 09051B   26171.17902305  .00000711  00000+0  15003-3 0  9991",
    "line2": "2 35932  98.4033  79.1195 0006171 192.6984 167.4062 14.62486325889593"
  },
  {
    "name": "BEESAT-1",
    "line1": "1 35933U 09051C   26170.71084495  .00000603  00000+0  13077-3 0  9991",
    "line2": "2 35933  98.3961  78.2733 0004371 207.4388 152.6582 14.61723870889551"
  },
  {
    "name": "ITUPSAT1",
    "line1": "1 35935U 09051E   26171.25204671  .00000541  00000+0  12172-3 0  9999",
    "line2": "2 35935  98.4046  78.0115 0006403 222.9093 137.1608 14.60444493889189"
  },
  {
    "name": "O/OREOS (USA 219)",
    "line1": "1 37224U 10062C   26171.14280665  .00001640  00000+0  16050-3 0  9991",
    "line2": "2 37224  71.9702  73.6446 0012657  56.8090 303.4293 14.93754530117087"
  },
  {
    "name": "JUGNU",
    "line1": "1 37839U 11058B   26171.47379505  .00000387  00000+0  62780-4 0  9996",
    "line2": "2 37839  19.9612 288.4626 0018614 112.2842 315.8284 14.13777522759490"
  },
  {
    "name": "SRMSAT",
    "line1": "1 37841U 11058D   26171.35085059  .00000352  00000+0  47312-4 0  9990",
    "line2": "2 37841  19.9729  40.3181 0011727 238.5935 283.9086 14.11576136758261"
  },
  {
    "name": "ELEKTRO-L 1 (GOMS 2)",
    "line1": "1 37344U 11001A   26171.22703549 -.00000039  00000+0  00000+0 0  9994",
    "line2": "2 37344   9.6936  54.4770 0004266  29.3888 153.5264  1.00156556 56511"
  },
  {
    "name": "STARS (KUKAI)",
    "line1": "1 33498U 09002G   26171.43004667  .00002227  00000+0  20529-3 0  9998",
    "line2": "2 33498  98.1551 118.8709 0008975 149.8883 210.2854 14.95768255938961"
  },
  {
    "name": "NOAA 19",
    "line1": "1 33591U 09005A   26171.44791411  .00000017  00000+0  32890-4 0  9996",
    "line2": "2 33591  98.9519 242.3252 0014118  25.5360 334.6507 14.13474744894941"
  },
  {
    "name": "METEOR-M 1",
    "line1": "1 35865U 09049A   26171.45013679  .00000053  00000+0  43011-4 0  9991",
    "line2": "2 35865  98.7386 133.9003 0001416 326.4568  33.6520 14.23157474869713"
  },
  {
    "name": "DMSP 5D-3 F18 (USA 210)",
    "line1": "1 35951U 09057A   26171.39400846  .00000210  00000+0  13184-3 0  9997",
    "line2": "2 35951  98.9038 152.1561 0009964 239.2588 120.7604 14.14898526860044"
  },
  {
    "name": "PROBA-2",
    "line1": "1 36037U 09059B   26171.40414822  .00000114  00000+0  37079-4 0  9999",
    "line2": "2 36037  98.2451 354.7122 0011942 270.9830  88.9999 14.54863494881995"
  },
  {
    "name": "YAOGAN-7",
    "line1": "1 36110U 09069A   26171.40605635  .00000340  00000+0  54142-4 0  9997",
    "line2": "2 36110  98.0068  57.2532 0025376  31.7797 328.4939 14.78012533890105"
  },
  {
    "name": "COSMOS 2463",
    "line1": "1 36519U 10017A   26171.46255215  .00000044  00000+0  31740-4 0  9996",
    "line2": "2 36519  82.9603 247.2995 0037457 120.0823 251.3222 13.71665895808389"
  },
  {
    "name": "AISSAT 1",
    "line1": "1 36797U 10035C   26171.28409535  .00001676  00000+0  14955-3 0  9990",
    "line2": "2 36797  98.0927  70.6375 0010493  52.9221 307.2958 14.97378375864685"
  },
  {
    "name": "TISAT 1",
    "line1": "1 36799U 10035E   26171.38340039  .00017738  00000+0  57958-3 0  9992",
    "line2": "2 36799  98.0706 118.2156 0001859 164.8533 195.2762 15.31812076868191"
  },
  {
    "name": "RESOURCESAT-2",
    "line1": "1 37387U 11015A   26171.46738348  .00000002  00000+0  20960-4 0  9998",
    "line2": "2 37387  98.7643 238.8867 0010271 244.9511 115.0601 14.21600287786642"
  },
  {
    "name": "YOUTHSAT",
    "line1": "1 37388U 11015B   26171.46496638  .00000133  00000+0  73419-4 0  9994",
    "line2": "2 37388  98.3683 145.3712 0013987 337.3086 134.7893 14.25631394788106"
  },
  {
    "name": "APRIZESAT 6",
    "line1": "1 37793U 11044F   26171.34143514  .00000569  00000+0  87454-4 0  9992",
    "line2": "2 37793  98.2361  81.9054 0044455  76.2520  40.3130 14.76919894797610"
  },
  {
    "name": "SUOMI NPP",
    "line1": "1 37849U 11061A   26171.44192975  .00000061  00000+0  50150-4 0  9999",
    "line2": "2 37849  98.7953 112.2958 0001348 359.0198   1.0975 14.19517985758904"
  }
]