OBJECT_NAME,OBJECT_ID,EPOCH,MEAN_MOTION,ECCENTRICITY,INCLINATION,RA_OF_ASC_NODE,ARG_OF_PERICENTER,MEAN_ANOMALY,EPHEMERIS_TYPE,CLASSIFICATION_TYPE,NORAD_CAT_ID,ELEMENT_SET_NO,REV_AT_EPOCH,BSTAR,MEAN_MOTION_DOT,MEAN_MOTION_DDOT
STARS (KUKAI),2009-002G,2026-06-20T10:19:16.032288,14.95768255,.0008975,98.1551,118.8709,149.8883,210.2854,0,U,33498,999,93896,.20529E-3,.2227E-4,0
KKS-1 (KISEKI),2009-002H,2026-06-20T10:15:36.139104,14.83130850,.0006425,98.1188,93.9212,283.2129,76.8367,0,U,33499,999,93667,.12861E-3,.993E-5,0
NOAA 19,2009-005A,2026-06-20T10:44:59.779104,14.13474744,.0014118,98.9519,242.3252,25.5360,334.6507,0,U,33591,999,89494,.3289E-4,.17E-6,0
METEOR-M 1,2009-049A,2026-06-20T10:48:11.818656,14.23157474,.0001416,98.7386,133.9003,326.4568,33.6520,0,U,35865,999,86971,.43011E-4,.53E-6,0
SWISSCUBE,2009-051B,2026-06-20T04:17:47.591520,14.62486325,.00061712,98.4033,79.1195,192.6984,167.4062,0,U,35932,999,88959,.15003291E-3,.711E-5,0
BEESAT-1,2009-051C,2026-06-19T17:03:37.003680,14.61723870,.00043714,98.3961,78.2733,207.4388,152.6582,0,U,35933,999,88955,.13076923E-3,.603E-5,0
ITUPSAT1,2009-051E,2026-06-20T06:02:56.835744,14.60444493,.0006403,98.4046,78.0115,222.9093,137.1608,0,U,35935,999,88918,.12172E-3,.541E-5,0
DMSP 5D-3 F18 (USA 210),2009-057A,2026-06-20T09:27:22.330944,14.14898526,.0009964,98.9038,152.1561,239.2588,120.7604,0,U,35951,999,86004,.13184E-3,.21E-5,0
PROBA-2,2009-059B,2026-06-20T09:41:58.406208,14.54863494,.0011942,98.2451,354.7122,270.9830,88.9999,0,U,36037,999,88199,.37079E-4,.114E-5,0
YAOGAN-7,2009-069A,2026-06-20T09:44:43.268640,14.78012533,.0025376,98.0068,57.2532,31.7797,328.4939,0,U,36110,999,89010,.54142E-4,.34E-5,0
COSMOS 2463,2010-017A,2026-06-20T11:06:04.505760,13.71665895,.0037457,82.9603,247.2995,120.0823,251.3222,0,U,36519,999,80838,.3174E-4,.44E-6,0
AISSAT 1,2010-035C,2026-06-20T06:49:05.838240,14.97378375,.0010493,98.0927,70.6375,52.9221,307.2958,0,U,36797,999,86468,.14955E-3,.1676E-4,0
TISAT 1,2010-035E,2026-06-20T09:12:05.793696,15.31812076,.0001859,98.0706,118.2156,164.8533,195.2762,0,U,36799,999,86819,.57958E-3,.17738E-3,0
O/OREOS (USA 219),2010-062C,2026-06-20T03:25:38.494560,14.93754530,.00126578,71.9702,73.6446,56.8090,303.4293,0,U,37224,999,11708,.1605045E-3,.164E-4,0
ELEKTRO-L 1 (GOMS 2),2011-001A,2026-06-20T05:26:55.866336,1.00156556,.0004266,9.6936,54.4770,29.3888,153.5264,0,U,37344,999,5651,0,-.39E-6,0
RESOURCESAT-2,2011-015A,2026-06-20T11:13:01.932672,14.21600287,.0010271,98.7643,238.8867,244.9511,115.0601,0,U,37387,999,78664,.2096E-4,.2E-7,0
YOUTHSAT,2011-015B,2026-06-20T11:09:33.095232,14.25631394,.0013987,98.3683,145.3712,337.3086,134.7893,0,U,37388,999,78810,.73419E-4,.133E-5,0
APRIZESAT 6,2011-044F,2026-06-20T08:11:39.996096,14.76919894,.0044455,98.2361,81.9054,76.2520,40.3130,0,U,37793,999,79761,.87454E-4,.569E-5,0
JUGNU,2011-058B,2026-06-20T11:22:15.892320,14.13777522,.0018614,19.9612,288.4626,112.2842,315.8284,0,U,37839,999,75949,.6278E-4,.387E-5,0
SRMSAT,2011-058D,2026-06-20T08:25:13.490976,14.11576136,.0011727,19.9729,40.3181,238.5935,283.9086,0,U,37841,999,75826,.47312E-4,.352E-5,0
SUOMI NPP,2011-061A,2026-06-20T10:36:22.730400,14.19517985,.0001348,98.7953,112.2958,359.0198,1.0975,0,U,37849,999,75890,.5015E-4,.61E-6,0
